     2.100          NAVIGATION                              RINEX VERSION / TYPE
fic2rin                                 10/23/2012 00:16:40 PGM / RUN BY / DATE
                                                            END OF HEADER
17 12 10 22  4  0  0.0  .857296399772D-04 -.341060513165D-11  .000000000000D+00
     .720000000000D+02 -.699375000000D+02  .422089010273D-08 -.276882356320D+01
    -.354461371899D-05  .764846859965D-02  .924244523048D-05  .515375270844D+04
     .100800000000D+06  .558793544769D-08  .141170266905D+01 -.596046447754D-07
     .963529744024D+00  .201906250000D+03 -.229577200755D+01 -.775460872487D-08
     .132505519387D-09  .100000000000D+01  .171100000000D+04  .000000000000D+00
     .240000000000D+01  .000000000000D+00 -.107102096081D-07  .720000000000D+02
     .936060000000D+05  .400000000000D+01
18 12 10 22  4  0  0.0  .220850575715D-03  .181898940355D-11  .000000000000D+00
     .820000000000D+02  .129062500000D+02  .550880089224D-08 -.131264829718D+01
     .912696123123D-06  .136189791374D-01  .665150582790D-05  .515373548508D+04
     .100800000000D+06  .257045030594D-06 -.280915134020D+01  .219792127609D-06
     .928980293015D+00  .231093750000D+03 -.213872875823D+01 -.849821112746D-08
    -.107861635727D-09  .100000000000D+01  .171100000000D+04  .000000000000D+00
     .340000000000D+01  .000000000000D+00 -.107102096081D-07  .820000000000D+02
     .936060000000D+05  .400000000000D+01
19 12 10 22  4  0  0.0 -.315106008202D-03 -.341060513165D-11  .000000000000D+00
     .780000000000D+02 -.716562500000D+02  .431232248268D-08  .270615031818D+01
    -.365450978279D-05  .862137321383D-02  .102706253529D-04  .515363673210D+04
     .100800000000D+06 -.106170773506D-06  .146432054079D+01 -.242143869400D-07
     .960838339025D+00  .181593750000D+03  .265224758304D+00 -.789247161027D-08
     .846463830045D-10  .100000000000D+01  .171100000000D+04  .000000000000D+00
     .240000000000D+01  .000000000000D+00 -.144354999065D-07  .780000000000D+02
     .936060000000D+05  .400000000000D+01
20 12 10 22  4  0  0.0  .711730681360D-04  .102318153949D-11  .000000000000D+00
     .210000000000D+02  .145000000000D+02  .564594946217D-08 -.825783832457D+00
     .849366188049D-06  .516627216712D-02  .665150582790D-05  .515360769081D+04
     .100800000000D+06 -.167638063431D-07 -.286275471841D+01  .819563865662D-07
     .929583992493D+00  .239031250000D+03  .127147782085D+01 -.864964600676D-08
    -.700029159024D-10  .100000000000D+01  .171100000000D+04  .000000000000D+00
     .240000000000D+01  .000000000000D+00 -.791624188423D-08  .210000000000D+02
     .936060000000D+05  .400000000000D+01
21 12 10 22  4  0  0.0 -.257384032011D-03 -.238742359215D-11  .000000000000D+00
     .680000000000D+02  .200000000000D+02  .541558272362D-08 -.186781156916D+00
     .122375786304D-05  .194029296981D-01  .844150781631D-05  .515377936363D+04
     .100800000000D+06  .000000000000D+00  .242484737336D+01  .342726707458D-06
     .931499781733D+00  .205593750000D+03 -.220968794345D+01 -.878643741896D-08
     .352514683652D-09  .100000000000D+01  .171100000000D+04  .000000000000D+00
     .240000000000D+01  .000000000000D+00 -.111758708954D-07  .680000000000D+02
     .936060000000D+05  .400000000000D+01
22 12 10 22  4  0  0.0  .149819068611D-03  .795807864051D-12  .000000000000D+00
     .530000000000D+02  .149375000000D+02  .554201656152D-08 -.205190536897D+01
     .722706317902D-06  .623594713397D-02  .673532485962D-05  .515366914940D+04
     .100800000000D+06  .856816768646D-07 -.280608578366D+01  .353902578354D-07
     .926712294544D+00  .227968750000D+03 -.200728326910D+01 -.846249535404D-08
    -.735744932444D-10  .100000000000D+01  .171100000000D+04  .000000000000D+00
     .240000000000D+01  .000000000000D+00 -.172294676304D-07  .530000000000D+02
     .936060000000D+05  .400000000000D+01
23 12 10 22  4  0  0.0  .151921063662D-03 -.386535248253D-11  .000000000000D+00
     .270000000000D+02  .323437500000D+02  .462769276198D-08  .232432548546D+01
     .174157321453D-05  .822761468589D-02  .987201929092D-05  .515357662201D+04
     .100800000000D+06 -.206753611565D-06 -.175413983396D+01  .428408384323D-07
     .958179350827D+00  .190000000000D+03 -.291880074557D+01 -.806390732268D-08
    -.247510309798D-09  .100000000000D+01  .171100000000D+04  .000000000000D+00
     .240000000000D+01  .000000000000D+00 -.204890966415D-07  .270000000000D+02
     .936060000000D+05  .400000000000D+01
24 12 10 22  4  0  0.0  .205868855119D-05  .159161572810D-11  .000000000000D+00
     .790000000000D+02  .640000000000D+02  .453804617070D-08 -.585077483146D+00
     .337883830070D-05  .953361159191D-04  .642053782940D-05  .517666807938D+04
     .100800000000D+06  .782310962677D-07 -.727589849529D+00 -.782310962677D-07
     .959439761546D+00  .248312500000D+03 -.120445574024D+01 -.812140971788D-08
     .857178562071D-10  .100000000000D+01  .171100000000D+04  .000000000000D+00
     .340000000000D+01  .630000000000D+02  .465661287308D-08  .790000000000D+02
     .936060000000D+05  .400000000000D+01
25 12 10 22  4  0  0.0  .475388951600D-04  .159161572810D-11  .000000000000D+00
     .330000000000D+02 -.502812500000D+02  .446232873105D-08 -.760587164937D+00
    -.274740159512D-05  .180845265277D-02  .520981848240D-05  .515364290810D+04
     .100800000000D+06  .186264514923D-08  .318624653390D+00  .186264514923D-07
     .970621357910D+00  .283500000000D+03  .742836286662D+00 -.822891419588D-08
    -.141077305007D-09  .100000000000D+01  .171100000000D+04  .000000000000D+00
     .240000000000D+01  .000000000000D+00  .512227416039D-08  .330000000000D+02
     .936060000000D+05  .400000000000D+01
26 12 10 22  4  0  0.0 -.237773172557D-03  .135287336889D-10  .000000000000D+00
     .183000000000D+03  .337500000000D+02  .399838083433D-08  .217855690774D+01
     .149384140968D-05  .208070750814D-01  .919774174690D-05  .515366251755D+04
     .100800000000D+06  .912696123123D-07 -.167817992368D+01 -.400468707085D-06
     .981333653080D+00  .210281250000D+03  .120876464256D+01 -.755852912879D-08
    -.144291724615D-09  .100000000000D+01  .171100000000D+04  .000000000000D+00
     .240000000000D+01  .000000000000D+00 -.605359673500D-08  .183000000000D+03
     .936060000000D+05  .400000000000D+01
27 12 10 22  4  0  0.0 -.219331588596D-03  .306954461848D-11  .000000000000D+00
     .150000000000D+02 -.539062500000D+02  .552130141294D-08 -.204990301595D+01
    -.269524753094D-05  .560589309316D-02  .511109828949D-05  .515359617043D+04
     .100800000000D+06  .186264514923D-07  .334215803761D+00 -.260770320892D-07
     .975499433376D+00  .289281250000D+03  .887814939822D+00 -.810140888477D-08
    -.892894335490D-10  .100000000000D+01  .171100000000D+04  .000000000000D+00
     .240000000000D+01  .630000000000D+02 -.190921127796D-07  .150000000000D+02
     .936060000000D+05  .400000000000D+01
28 12 10 22  4  0  0.0  .197286251932D-03  .363797880709D-11  .000000000000D+00
     .101000000000D+03 -.474687500000D+02  .405124017899D-08 -.209886660610D+01
    -.241026282310D-05  .182093642652D-01  .447593629360D-05  .515363200760D+04
     .100800000000D+06  .346451997757D-06  .379161129537D+00 -.409781932831D-07
     .980921534428D+00  .301343750000D+03 -.181821292041D+01 -.773710799589D-08
    -.407159816984D-10  .100000000000D+01  .171100000000D+04  .000000000000D+00
     .240000000000D+01  .000000000000D+00 -.107102096081D-07  .101000000000D+03
     .936060000000D+05  .400000000000D+01
29 12 10 22  4  0  0.0  .368740875274D-03  .409272615798D-11  .000000000000D+00
     .370000000000D+02 -.534375000000D+02  .433518057767D-08  .426670064178D-01
    -.276975333691D-05  .176170526538D-02  .965595245361D-05  .515376737785D+04
     .100800000000D+06 -.298023223877D-07  .142036022994D+01 -.912696123123D-07
     .964107315785D+00  .197062500000D+03 -.108439610449D+01 -.795175979414D-08
     .289297764699D-10  .100000000000D+01  .171100000000D+04  .000000000000D+00
     .240000000000D+01  .000000000000D+00 -.931322574615D-08  .370000000000D+02
     .936060000000D+05  .400000000000D+01
30 12 10 22  4  0  0.0 -.353710725904D-03  .186446413863D-10  .000000000000D+00
     .590000000000D+02 -.406875000000D+02  .458447667614D-08 -.290496485405D+01
    -.199489295483D-05  .110600901535D-01  .432319939137D-05  .515372995567D+04
     .100800000000D+06  .102445483208D-06  .226423144256D+00  .782310962677D-07
     .961808231768D+00  .295906250000D+03  .161476099129D+01 -.817748348215D-08
    -.767889128522D-10  .100000000000D+01  .171100000000D+04  .000000000000D+00
     .685000000000D+01  .000000000000D+00 -.465661287308D-08  .590000000000D+02
     .936060000000D+05  .400000000000D+01
31 12 10 22  4  0  0.0  .282150227576D-03  .227373675443D-11  .000000000000D+00
     .570000000000D+02  .512187500000D+02  .417695970142D-08  .693827590350D+00
     .246986746788D-05  .791412848048D-02  .613927841187D-05  .515375122452D+04
     .100800000000D+06  .558793544769D-07 -.698818518242D+00 -.167638063431D-06
     .980939733129D+00  .272562500000D+03 -.854215283987D+00 -.816105422638D-08
     .764317551180D-10  .100000000000D+01  .171100000000D+04  .000000000000D+00
     .240000000000D+01  .000000000000D+00 -.135041773319D-07  .570000000000D+02
     .936060000000D+05  .400000000000D+01
32 12 10 22  4  0  0.0 -.500535592437D-03 -.375166564481D-11  .000000000000D+00
     .520000000000D+02  .125000000000D+02  .507092551012D-08  .130727026654D+01
     .623986124992D-06  .118245437043D-01  .674836337566D-05  .515354328918D+04
     .100800000000D+06  .244006514549D-06 -.272746399593D+01  .158324837685D-06
     .950898154462D+00  .245468750000D+03 -.489557698375D+00 -.822677124947D-08
    -.237152735506D-09  .100000000000D+01  .171100000000D+04  .000000000000D+00
     .240000000000D+01  .000000000000D+00 -.325962901115D-08  .520000000000D+02
     .936060000000D+05  .400000000000D+01
